[{"OBJECT_NAME":"TIANMU-1 14","OBJECT_ID":"2023-205D","EPOCH":"2026-03-09T23:38:37.144032","MEAN_MOTION":15.2583937,"ECCENTRICITY":0.00072842,"INCLINATION":97.35,"RA_OF_ASC_NODE":91.4174,"ARG_OF_PERICENTER":335.7472,"MEAN_ANOMALY":24.3423,"EPHEMERIS_TYPE":0,"CLASSIFICATION_TYPE":"U","NORAD_CAT_ID":58648,"ELEMENT_SET_NO":999,"REV_AT_EPOCH":12237,"BSTAR":0.00030290643,"MEAN_MOTION_DOT":7.686e-5,"MEAN_MOTION_DDOT":0},{"OBJECT_NAME":"STARLINK-31975","OBJECT_ID":"2024-100B","EPOCH":"2026-03-09T12:57:49.659840","MEAN_MOTION":15.2759966,"ECCENTRICITY":8.598e-5,"INCLINATION":43.0001,"RA_OF_ASC_NODE":126.2718,"ARG_OF_PERICENTER":177.9327,"MEAN_ANOMALY":182.1528,"EPHEMERIS_TYPE":0,"CLASSIFICATION_TYPE":"U","NORAD_CAT_ID":59886,"ELEMENT_SET_NO":999,"REV_AT_EPOCH":10113,"BSTAR":-0.00030686127,"MEAN_MOTION_DOT":-8.701e-5,"MEAN_MOTION_DDOT":0}]
